NORAD_CAT_ID,OBJECT_NAME,OBJECT_TYPE,EPOCH,MEAN_MOTION,ECCENTRICITY,INCLINATION,RA_OF_ASC_NODE,ARG_OF_PERICENTER,MEAN_ANOMALY,BSTAR,MEAN_MOTION_DOT,MEAN_MOTION_DDOT,TLE_LINE0,TLE_LINE1,TLE_LINE2,SEMIMAJOR_AXIS,PERIOD,APOGEE,PERIGEE,DECAYED
52669.0,STARLINK-3972,PAYLOAD,2022-09-22 20:27:56,15.088338,0.0001658,53.2198,67.7128,61.6755,298.4405,6.4873e-05,7.44e-06,0.0,0 STARLINK-3972,1 52669U 22053P   22265.85273499  .00000744  00000-0  64873-4 0  9991,2 52669  53.2198  67.7128 0001658  61.6755 298.4405 15.08833800 20245,6917.899,95.438,540.911,538.617,0.0
52669.0,STARLINK-3972,PAYLOAD,2022-09-23 17:07:56,15.08850817,0.0001621,53.2204,63.8474,59.7411,300.3742,6.715e-05,7.81e-06,0.0,0 STARLINK-3972,1 52669U 22053P   22266.71384335  .00000781  00000-0  67150-4 0  9991,2 52669  53.2204  63.8474 0001621  59.7411 300.3742 15.08850817 20379,6917.847,95.437,540.8340000000002,538.591,0.0
52669.0,STARLINK-3972,PAYLOAD,2022-09-23 20:18:42,15.08847346,0.000164,53.2205,63.2534,56.2011,303.9137,6.9511e-05,8.19e-06,0.0,0 STARLINK-3972,1 52669U 22053P   22266.84632485  .00000819  00000-0  69511-4 0  9992,2 52669  53.2205  63.2534 0001640  56.2011 303.9137 15.08847346 20392,6917.858,95.437,540.857,538.5880000000002,0.0
52669.0,STARLINK-3972,PAYLOAD,2022-09-24 13:47:57,15.08840611,0.0001639,53.2205,59.9827,56.7912,303.3237,6.153199999999999e-05,6.91e-06,0.0,0 STARLINK-3972,1 52669U 22053P   22267.57496727  .00000691  00000-0  61532-4 0  9993,2 52669  53.2205  59.9827 0001639  56.7912 303.3237 15.08840611 20508,6917.879,95.438,540.877,538.61,0.0
52669.0,STARLINK-3972,PAYLOAD,2022-09-24 16:58:43,15.0883917,0.0001636,53.2204,59.3879,55.0976,305.0169,5.3016e-05,5.56e-06,0.0,0 STARLINK-3972,1 52669U 22053P   22267.70744834  .00000556  00000-0  53016-4 0  9991,2 52669  53.2204  59.3879 0001636  55.0976 305.0169 15.08839170 20520,6917.8830000000025,95.438,540.88,538.616,0.0
52669.0,STARLINK-3972,PAYLOAD,2022-09-24 21:44:53,15.08834708,0.0001663,53.22,58.4959,53.9431,306.1715,1.1117e-05,-1.11e-06,0.0,0 STARLINK-3972,1 52669U 22053P   22267.90617273 -.00000111  00000-0  11117-4 0  9993,2 52669  53.2200  58.4959 0001663  53.9431 306.1715 15.08834708 20552,6917.897,95.438,540.9119999999998,538.611,0.0
52669.0,STARLINK-3972,PAYLOAD,2022-09-25 15:14:07,15.08846964,0.000171,53.2202,55.225,53.6398,306.4752,3.9049000000000005e-06,-2.26e-06,0.0,0 STARLINK-3972,1 52669U 22053P   22268.63480497 -.00000226  00000-0  39049-5 0  9992,2 52669  53.2202  55.2250 0001710  53.6398 306.4752 15.08846964 20668,6917.859,95.437,540.9069999999998,538.5409999999998,0.0
52669.0,STARLINK-3972,PAYLOAD,2022-09-25 21:35:39,15.0884607,0.0001851,53.2203,54.0361,48.3973,311.7178,2.419e-06,-2.5e-06,0.0,0 STARLINK-3972,1 52669U 22053P   22268.89976516 -.00000250  00000-0  24190-5 0  9990,2 52669  53.2203  54.0361 0001851  48.3973 311.7178 15.08846070 20709,6917.861999999999,95.437,541.007,538.446,0.0
52669.0,STARLINK-3972,PAYLOAD,2022-09-26 19:51:04,15.08833113,0.0001797,53.2198,49.8728,50.2978,309.8173,-4.832600000000001e-05,-1.057e-05,0.0,0 STARLINK-3972,1 52669U 22053P   22269.82713683 -.00001057  00000-0 -48326-4 0  9991,2 52669  53.2198  49.8728 0001797  50.2978 309.8173 15.08833113 20849,6917.901,95.438,541.01,538.523,0.0
52669.0,STARLINK-3972,PAYLOAD,2022-09-26 21:26:27,15.08831514,0.000182,53.2198,49.5756,48.9028,311.2121,-6.6472e-05,-1.346e-05,0.0,0 STARLINK-3972,1 52669U 22053P   22269.89337862 -.00001346  00000-0 -66472-4 0  9992,2 52669  53.2198  49.5756 0001820  48.9028 311.2121 15.08831514 20858,6917.906,95.438,541.03,538.512,0.0
52669.0,STARLINK-3972,PAYLOAD,2022-09-27 11:44:55,15.08839559,0.0001635,53.2192,46.9003,68.1924,291.9242,-1.6618e-05,-5.53e-06,0.0,0 STARLINK-3972,1 52669U 22053P   22270.48953530 -.00000553  00000-0 -16618-4 0  9991,2 52669  53.2192  46.9003 0001635  68.1924 291.9242 15.08839559 20946,6917.882,95.438,540.878,538.616,0.0
52669.0,STARLINK-3972,PAYLOAD,2022-09-27 19:41:50,15.08846481,0.0001727,53.2185,45.4122,56.4711,303.6446,0.00010047,1.312e-05,0.0,0 STARLINK-3972,1 52669U 22053P   22270.82072776  .00001312  00000-0  10047-3 0  9994,2 52669  53.2185  45.4122 0001727  56.4711 303.6446 15.08846481 20994,6917.861,95.437,540.92,538.531,0.0
52669.0,STARLINK-3972,PAYLOAD,2022-09-27 21:17:13,15.08847048,0.0001729,53.2185,45.115,55.9532,304.1624,0.00010678,1.412e-05,0.0,0 STARLINK-3972,1 52669U 22053P   22270.88696741  .00001412  00000-0  10678-3 0  9995,2 52669  53.2185  45.1150 0001729  55.9532 304.1624 15.08847048 21006,6917.859,95.437,540.92,538.528,0.0
52669.0,STARLINK-3972,PAYLOAD,2022-09-28 13:11:07,15.0879229,0.0001789,53.218,42.1413,66.0773,294.0406,0.0015782,0.00024886,0.0,0 STARLINK-3972,1 52669U 22053P   22271.54938926  .00024886  00000-0  15782-2 0  9993,2 52669  53.2180  42.1413 0001789  66.0773 294.0406 15.08792290 21100,6918.026,95.441,541.129,538.654,0.0
52669.0,STARLINK-3972,PAYLOAD,2022-09-28 17:57:15,15.08831621,0.0001795,53.2181,41.2495,56.3847,303.7316,0.00010242,1.342e-05,0.0,0 STARLINK-3972,1 52669U 22053P   22271.74809950  .00001342  00000-0  10242-3 0  9998,2 52669  53.2181  41.2495 0001795  56.3847 303.7316 15.08831621 21135,6917.906,95.438,541.013,538.529,0.0
52669.0,STARLINK-3972,PAYLOAD,2022-09-28 19:32:38,15.08833861,0.0001771999999999,53.2179,40.9524,58.8508,301.2658,6.2901e-05,7.13e-06,0.0,0 STARLINK-3972,1 52669U 22053P   22271.81433736  .00000713  00000-0  62901-4 0  9992,2 52669  53.2179  40.9524 0001772  58.8508 301.2658 15.08833861 21148,6917.899,95.438,540.99,538.538,0.0
52669.0,STARLINK-3972,PAYLOAD,2022-09-29 11:26:29,15.08849203,0.0001813,53.2176,37.978,54.5401,305.576,0.00047582,7.295e-05,0.0,0 STARLINK-3972,1 52669U 22053P   22272.47673430  .00007295  00000-0  47582-3 0  9991,2 52669  53.2176  37.9780 0001813  54.5401 305.5760 15.08849203 21245,6917.852,95.437,540.971,538.4630000000002,0.0
52669.0,STARLINK-3972,PAYLOAD,2022-09-29 13:01:53,15.08839882,0.0001829,53.2176,37.6807,54.5353,305.5809,0.0003668,5.554e-05,0.0,0 STARLINK-3972,1 52669U 22053P   22272.54297663  .00005554  00000-0  36680-3 0  9992,2 52669  53.2176  37.6807 0001829  54.5353 305.5809 15.08839882 21252,6917.880999999999,95.438,541.011,538.48,0.0
52669.0,STARLINK-3972,PAYLOAD,2022-09-29 19:23:25,15.08837297,0.000183,53.2177,36.4914,53.7771,306.339,0.00021015,3.058e-05,0.0,0 STARLINK-3972,1 52669U 22053P   22272.80793878  .00003058  00000-0  21015-3 0  9993,2 52669  53.2177  36.4914 0001830  53.7771 306.3390 15.08837297 21292,6917.889,95.438,541.02,538.488,0.0
52669.0,STARLINK-3972,PAYLOAD,2022-09-29 20:58:49,15.08839132,0.0001841,53.2176,36.1939,52.1697,307.9462,0.0002758,4.104e-05,0.0,0 STARLINK-3972,1 52669U 22053P   22272.87417869  .00004104  00000-0  27580-3 0  9999,2 52669  53.2176  36.1939 0001841  52.1697 307.9462 15.08839132 21306,6917.8830000000025,95.438,541.0219999999998,538.474,0.0
52669.0,STARLINK-3972,PAYLOAD,2022-09-30 11:17:16,15.08861129,0.0001847,53.2175,33.5178,52.9048,307.2112,0.0011312999999999,0.00017773,0.0,0 STARLINK-3972,1 52669U 22053P   22273.47033516  .00017773  00000-0  11313-2 0  9991,2 52669  53.2175  33.5178 0001847  52.9048 307.2112 15.08861129 21390,6917.816,95.436,540.9590000000002,538.403,0.0
52669.0,STARLINK-3972,PAYLOAD,2022-09-30 16:03:26,15.08852409,0.0001764999999999,53.2176,32.6259,50.9395,309.1754,0.00067688,0.00010505,0.0,0 STARLINK-3972,1 52669U 22053P   22273.66905556  .00010505  00000-0  67688-3 0  9997,2 52669  53.2176  32.6259 0001765  50.9395 309.1754 15.08852409 21421,6917.842,95.437,540.928,538.486,0.0
52669.0,STARLINK-3972,PAYLOAD,2022-09-30 20:49:35,15.08857749,0.0001793,53.2177,31.7339,50.1847,309.9303,0.0007677,0.00011957,0.0,0 STARLINK-3972,1 52669U 22053P   22273.86777374  .00011957  00000-0  76770-3 0  9998,2 52669  53.2177  31.7339 0001793  50.1847 309.9303 15.08857749 21459,6917.826,95.436,540.932,538.451,0.0
52669.0,STARLINK-3972,PAYLOAD,2022-10-01 12:43:26,15.08856019,0.0001798,53.2179,28.7604,47.6868,312.4276,0.00036565,5.539e-05,0.0,0 STARLINK-3972,1 52669U 22053P   22274.53016896  .00005539  00000-0  36565-3 0  9995,2 52669  53.2179  28.7604 0001798  47.6868 312.4276 15.08856019 21559,6917.831,95.437,540.94,538.453,0.0
52669.0,STARLINK-3972,PAYLOAD,2022-10-01 14:18:49,15.08854761,0.0001748,53.218,28.4632,51.7767,308.3383,0.00027317,4.064e-05,0.0,0 STARLINK-3972,1 52669U 22053P   22274.59640797  .00004064  00000-0  27317-3 0  9991,2 52669  53.2180  28.4632 0001748  51.7767 308.3383 15.08854761 21564,6917.835,95.437,540.91,538.491,0.0
52669.0,STARLINK-3972,PAYLOAD,2022-10-01 19:04:59,15.08848958,0.0001778,53.2179,27.571,48.8017,311.3129,0.00013751,1.902e-05,0.0,0 STARLINK-3972,1 52669U 22053P   22274.79512891  .00001902  00000-0  13751-3 0  9991,2 52669  53.2179  27.5710 0001778  48.8017 311.3129 15.08848958 21593,6917.853,95.437,540.948,538.488,0.0
52669.0,STARLINK-3972,PAYLOAD,2022-10-02 03:01:54,15.08852759,0.0001914,53.2181,26.0842,47.3829,312.7324,0.00021352,3.113e-05,0.0,0 STARLINK-3972,1 52669U 22053P   22275.12632672  .00003113  00000-0  21352-3 0  9991,2 52669  53.2181  26.0842 0001914  47.3829 312.7324 15.08852759 21645,6917.840999999999,95.437,541.03,538.382,0.0
52669.0,STARLINK-3972,PAYLOAD,2022-10-02 09:23:27,15.08828261,0.0001834,53.218,24.8947,50.1241,309.9912,-0.00031267,-5.259e-05,0.0,0 STARLINK-3972,1 52669U 22053P   22275.39129401 -.00005259  00000-0 -31267-3 0  9992,2 52669  53.2180  24.8947 0001834  50.1241 309.9912 15.08828261 21683,6917.916,95.438,541.05,538.513,0.0
52669.0,STARLINK-3972,PAYLOAD,2022-10-02 12:34:14,15.0882707,0.0001875999999999,53.2181,24.3001,47.1406,312.9743,-0.00010942,-2.029e-05,0.0,0 STARLINK-3972,1 52669U 22053P   22275.52377480 -.00002029  00000-0 -10942-3 0  9998,2 52669  53.2181  24.3001 0001876  47.1406 312.9743 15.08827070 21701,6917.92,95.438,541.0830000000002,538.487,0.0
